! Propagated orbits
format  = 'OEF2.0'       ! file format
rectype = 'ML'           ! record type (1L/ML)
refsys  = ECLM J2000     ! default reference system
END_OF_HEADER
! Orbital elements of object K20K00H (computed with least squares fit)
K20K00H
! Keplerian elements: a, e, i, long. node, arg. peric., mean anomaly
 KEP   3.2770176197522716E+00 0.489813406860185  35.4071377670066 226.6207914399979  31.7464752385818 155.1565090050280
 MJD     59751.503580741 TDT
 MAG   0.000  0.000
! Non-grav parameters: model used, actual number in use, dimension
 LSP   0  0    6
! RMS    1.87409E-03   3.06154E-04   2.61077E-03   6.34970E-03   1.72381E-02   1.47562E-01
! EIG   1.98924E-07   7.01034E-07   1.05475E-05   2.55162E-05   3.72601E-05   3.21583E-03
! WEA   0.58272   0.09499  -0.01374   0.03425   0.09324  -0.80085
 COV   3.512202861662815E-06  5.719727866738537E-07 -4.730483909598440E-06
 COV   1.182998731421845E-05  3.219695881296364E-05 -2.764929588505597E-04
 COV   9.373027292179418E-08 -7.841898696187951E-07  1.927101095890113E-06
 COV   5.233608231796607E-06 -4.509194924444451E-05  6.816129223810874E-06
 COV  -1.612403751206932E-05 -4.314345866448811E-05  3.740581921474694E-04
 COV   4.031871928417140E-05  1.078515188840333E-04 -9.311831590993631E-04
 COV   2.971513279946832E-04 -2.534761070562601E-03  2.177448236358266E-02
 NOR   2.551061299642071E+12  6.105927770391380E+12 -1.056412968972179E+10
 NOR   2.979693226051690E+10  4.258655430006625E+10  5.145120761492884E+10
 NOR   1.544620134597701E+13 -6.847286416495902E+09  8.505377976421581E+10
 NOR   1.082028508456339E+11  1.258709907345088E+11  4.556724709575993E+08
 NOR   1.812849726794255E+08 -3.787224188321916E+07 -1.528073321381583E+08
 NOR   5.777001785105225E+08  6.017126612256994E+08  6.461331125152209E+08
 NOR   7.590053271464514E+08  8.795767366127985E+08  1.046638425325144E+09
! Orbital elements of object K20R01N (computed with least squares fit)
K20R01N
! Keplerian elements: a, e, i, long. node, arg. peric., mean anomaly
 KEP   3.2383542557794258E+00 0.481691420534986  35.4276816300695 226.5233903480844  31.5657299503385 158.2732975448453
 MJD     59751.503580741 TDT
 MAG   0.000  0.000
! Non-grav parameters: model used, actual number in use, dimension
 LSP   0  0    6
! RMS    8.93757E-05   1.30080E-05   3.24117E-04   3.15449E-04   2.50948E-03   7.41469E-03
! EIG   3.72658E-07   1.44631E-06   4.18129E-06   7.03324E-06   2.12931E-05   1.62365E-04
! WEA   0.54548   0.02939  -0.01172   0.01275   0.26414  -0.79468
 COV   7.988021777729234E-09  2.825394794582712E-10 -7.488140999616634E-09
 COV   9.345082255546856E-09  2.218213411666874E-07 -6.480606321895026E-07
 COV   1.692080664981976E-10 -2.769082770481809E-09  1.866450748313066E-09
 COV   6.611653447631479E-09 -4.211395148367111E-08  1.050518730685591E-07
 COV  -9.125535624845245E-08 -1.539264925179706E-07  9.222799487723921E-07
 COV   9.950796038728680E-08  1.941236098434357E-07 -9.498088558817628E-07
 COV   6.297497315932496E-06 -1.792909653773840E-05  5.497765663288807E-05
 NOR   6.975384430806681E+11  1.679167634357205E+12 -6.086857390710949E+08
 NOR   1.028343176913269E+10  1.316004385473941E+10  1.398822732203330E+10
 NOR   4.124933311900729E+12 -2.329504290636630E+08  2.668991642776217E+10
 NOR   3.308236434021275E+10  3.420701906322012E+10  8.465623934169021E+07
 NOR   6.618229724418171E+07 -1.333836432425945E+05 -7.673724601002875E+06
 NOR   2.482186313748896E+08  2.248987969221894E+08  2.181842545385969E+08
 NOR   2.769018187215748E+08  2.746582826028970E+08  2.845792029735399E+08
! Orbital elements of object K20K00H=K20R01N (computed with least squares fit)
K20K00H=K20R01N
! Keplerian elements: a, e, i, long. node, arg. peric., mean anomaly
 KEP   3.2349020268784363E+00 0.482351607052538  35.4236361556923 226.5195200701270  31.4737170165724 158.4560587571972
 MJD     59751.503580741 TDT
! Non-grav parameters: model used, actual number in use, dimension
 LSP   0  0    6
! RMS    1.15171E-04   1.79974E-05   4.67414E-04   3.35064E-04   3.15876E-03   1.04831E-02
! EIG   4.68501E-07   1.68948E-06   3.57643E-06   6.21957E-06   1.98887E-05   2.23057E-04
! WEA   0.51325   0.06429  -0.02567   0.01749   0.24503  -0.81941
 COV   1.326427612606103E-08  1.509007125311902E-09 -3.412767368203991E-08
 COV   2.500747398656629E-08  3.617925616073867E-07 -1.193003676292140E-06
 COV   3.239060197273400E-10 -7.669384499413751E-09  3.810146295807054E-09
 COV   4.145408044386942E-08 -1.553236533912502E-07  2.184757104986961E-07
 COV  -1.215075205242151E-07 -9.254276590514648E-07  3.572339141921480E-06
 COV   1.122677295877454E-07  6.367401488520366E-07 -2.374364779973649E-06
 COV   9.977748425662595E-06 -3.264614458278621E-05  1.098962751832563E-04
 NOR   4.468126171817535E+11  1.058180505176005E+12 -1.258043487542979E+09
 NOR   5.762039698948978E+09  7.940005059972076E+09  8.870140963267925E+09
 NOR   2.650551620579648E+12 -7.524985348442850E+08  1.647648392692585E+10
 NOR   2.083765970407060E+10  2.180406209983540E+10  6.754458794318692E+07
 NOR   3.481901425944091E+07 -3.597713722009459E+06 -1.723263086541677E+07
 NOR   1.542568142068714E+08  1.446371445340792E+08  1.310057501953964E+08
 NOR   1.799888081259147E+08  1.723557133931036E+08  1.817091899550027E+08
